NORAD_CAT_ID,OBJECT_NAME,OBJECT_TYPE,EPOCH,MEAN_MOTION,ECCENTRICITY,INCLINATION,RA_OF_ASC_NODE,ARG_OF_PERICENTER,MEAN_ANOMALY,BSTAR,MEAN_MOTION_DOT,MEAN_MOTION_DDOT,TLE_LINE0,TLE_LINE1,TLE_LINE2,SEMIMAJOR_AXIS,PERIOD,APOGEE,PERIGEE,DECAYED
56481.0,STARLINK-6222,PAYLOAD,2023-12-09 11:41:30,14.98324625,0.000276,70.0012,34.8981,253.7606,106.3249,8.1345e-05,8.78e-06,0.0,0 STARLINK-6222,1 56481U 23064AK  23343.48715945  .00000878  00000-0  81345-4 0  9995,2 56481  70.0012  34.8981 0002760 253.7606 106.3249 14.98324625 33097,6950.21,96.107,573.993,570.156,0.0
56481.0,STARLINK-6222,PAYLOAD,2023-12-09 13:17:38,14.98322664,0.0002806,70.0009,34.7289,259.0003,101.0841,0.00011549,1.285e-05,0.0,0 STARLINK-6222,1 56481U 23064AK  23343.55392015  .00001285  00000-0  11549-3 0  9993,2 56481  70.0009  34.7289 0002806 259.0003 101.0841 14.98322664 32746,6950.216,96.107,574.031,570.13,0.0
56481.0,STARLINK-6222,PAYLOAD,2023-12-10 03:42:51,14.98332433,0.0002887,70.0005,33.2137,262.8981,97.185,-1.5043e-05,-2.72e-06,0.0,0 STARLINK-6222,1 56481U 23064AK  23344.15475722 -.00000272  00000-0 -15043-4 0  9998,2 56481  70.0005  33.2137 0002887 262.8981  97.1850 14.98332433 33194,6950.185,96.107,574.057,570.044,0.0
56481.0,STARLINK-6222,PAYLOAD,2023-12-10 11:43:31,14.98331192,0.0002931,70.0005,32.3724,262.4537,97.6289,-1.7181e-05,-2.98e-06,0.0,0 STARLINK-6222,1 56481U 23064AK  23344.48855746 -.00000298  00000-0 -17181-4 0  9995,2 56481  70.0005  32.3724 0002931 262.4537  97.6289 14.98331192 33247,6950.189,96.107,574.091,570.017,0.0
56481.0,STARLINK-6222,PAYLOAD,2023-12-10 13:19:39,14.98331145,0.0002925,70.0005,32.2041,262.2671,97.8156,-1.6331e-05,-2.88e-06,0.0,0 STARLINK-6222,1 56481U 23064AK  23344.55531740 -.00000288  00000-0 -16331-4 0  9993,2 56481  70.0005  32.2041 0002925 262.2671  97.8156 14.98331145 32891,6950.189,96.107,574.087,570.021,0.0
56481.0,STARLINK-6222,PAYLOAD,2023-12-11 03:44:51,14.98330176,0.000288,70.0011,30.6895,263.9165,96.1666,1.7613e-05,1.17e-06,0.0,0 STARLINK-6222,1 56481U 23064AK  23345.15615652  .00000117  00000-0  17613-4 0  9998,2 56481  70.0011  30.6895 0002880 263.9165  96.1666 14.98330176 33345,6950.192,96.107,574.059,570.056,0.0
56481.0,STARLINK-6222,PAYLOAD,2023-12-11 11:45:32,14.98328604,0.0002629,70.0024,29.8505,234.7926,125.2987,-1.7429e-05,-3.01e-06,0.0,0 STARLINK-6222,1 56481U 23064AK  23345.48995766 -.00000301  00000-0 -17429-4 0  9993,2 56481  70.0024  29.8505 0002629 234.7926 125.2987 14.98328604 33397,6950.197,96.107,573.889,570.235,0.0
56481.0,STARLINK-6222,PAYLOAD,2023-12-11 13:21:40,14.98328133,0.0002701,70.0024,29.6814,263.0223,97.0629,1.3493e-05,6.8e-07,0.0,0 STARLINK-6222,1 56481U 23064AK  23345.55671824  .00000068  00000-0  13493-4 0  9992,2 56481  70.0024  29.6814 0002701 263.0223  97.0629 14.98328133 33042,6950.199,96.107,573.941,570.186,0.0
56481.0,STARLINK-6222,PAYLOAD,2023-12-12 03:46:52,14.98330955,0.000299,70.0009,28.1653,271.9128,88.1689,4.9864e-06,-3.3e-07,0.0,0 STARLINK-6222,1 56481U 23064AK  23346.15755548 -.00000033  00000-0  49864-5 0  9990,2 56481  70.0009  28.1653 0002990 271.9128  88.1689 14.98330955 33493,6950.19,96.107,574.133,569.977,0.0
56481.0,STARLINK-6222,PAYLOAD,2023-12-12 11:47:32,14.98331685,0.0002969,70.0005,27.3231,267.2186,92.8633,1.1619e-05,4.6e-07,0.0,0 STARLINK-6222,1 56481U 23064AK  23346.49135407  .00000046  00000-0  11619-4 0  9992,2 56481  70.0005  27.3231 0002969 267.2186  92.8633 14.98331685 33548,6950.188,96.107,574.116,569.989,0.0
56481.0,STARLINK-6222,PAYLOAD,2023-12-12 13:23:41,14.98331752,0.0002947,70.0006,27.1549,267.9392,92.1429,1.0554e-05,3.3e-07,0.0,0 STARLINK-6222,1 56481U 23064AK  23346.55811406  .00000033  00000-0  10554-4 0  9992,2 56481  70.0006  27.1549 0002947 267.9392  92.1429 14.98331752 33193,6950.187,96.107,574.101,570.004,0.0
56481.0,STARLINK-6222,PAYLOAD,2023-12-13 03:48:53,14.98331868,0.0002893,70.0005,25.6397,266.4947,93.5881,1.9142e-06,-7e-07,0.0,0 STARLINK-6222,1 56481U 23064AK  23347.15895318 -.00000070  00000-0  19142-5 0  9998,2 56481  70.0005  25.6397 0002893 266.4947  93.5881 14.98331868 33641,6950.187,96.107,574.063,570.041,0.0
56481.0,STARLINK-6222,PAYLOAD,2023-12-13 11:49:33,14.98332138,0.0002916,70.0006,24.7982,266.8001,93.2824,1.3184e-05,6.4e-07,0.0,0 STARLINK-6222,1 56481U 23064AK  23347.49275207  .00000064  00000-0  13184-4 0  9995,2 56481  70.0006  24.7982 0002916 266.8001  93.2824 14.98332138 33693,6950.186,96.107,574.078,570.025,0.0
56481.0,STARLINK-6222,PAYLOAD,2023-12-14 03:50:54,14.98328168,0.0002812,70.0008,23.1152,264.994,95.0899,-2.3523e-05,-3.74e-06,0.0,0 STARLINK-6222,1 56481U 23064AK  23348.16035500 -.00000374  00000-0 -23523-4 0  9994,2 56481  70.0008  23.1152 0002812 264.9940  95.0899 14.98328168 33794,6950.199,96.107,574.018,570.109,0.0
56481.0,STARLINK-6222,PAYLOAD,2023-12-14 11:51:35,14.98327423,0.0002771,70.0008,22.2736,260.3308,99.7538,-2.9201e-05,-4.41e-06,0.0,0 STARLINK-6222,1 56481U 23064AK  23348.49415565 -.00000441  00000-0 -29201-4 0  9997,2 56481  70.0008  22.2736 0002771 260.3308  99.7538 14.98327423 33844,6950.201,96.107,573.992,570.14,0.0
56481.0,STARLINK-6222,PAYLOAD,2023-12-15 03:52:55,14.98330187,0.000297,70.0003,20.59,263.0979,96.9842,-1.9837e-05,-3.3e-06,0.0,0 STARLINK-6222,1 56481U 23064AK  23349.16175346 -.00000330  00000-0 -19837-4 0  9993,2 56481  70.0003  20.5900 0002970 263.0979  96.9842 14.98330187 33947,6950.192,96.107,574.122,569.993,0.0
56481.0,STARLINK-6222,PAYLOAD,2023-12-15 11:53:35,14.9833609,0.0002797,70.0006,19.7489,256.3767,103.7081,-7.7008e-05,-1.012e-05,0.0,0 STARLINK-6222,1 56481U 23064AK  23349.49555071 -.00001012  00000-0 -77008-4 0  9998,2 56481  70.0006  19.7489 0002797 256.3767 103.7081 14.98336090 33995,6950.174,96.107,573.983,570.095,0.0
56481.0,STARLINK-6222,PAYLOAD,2023-12-16 03:54:56,14.98323021,0.0002559,70.0012,18.0654,264.0467,96.04,8.9573e-05,9.76e-06,0.0,0 STARLINK-6222,1 56481U 23064AK  23350.16315485  .00000976  00000-0  89573-4 0  9993,2 56481  70.0012  18.0654 0002559 264.0467  96.0400 14.98323021 34098,6950.214,96.107,573.858,570.301,0.0
56481.0,STARLINK-6222,PAYLOAD,2023-12-16 11:55:36,14.98326759,0.0002781,70.0007,17.224,257.3597,102.7251,4.0123e-06,-4.5e-07,0.0,0 STARLINK-6222,1 56481U 23064AK  23350.49695538 -.00000045  00000-0  40123-5 0  9996,2 56481  70.0007  17.2240 0002781 257.3597 102.7251 14.98326759 34146,6950.203,96.107,574.001,570.135,0.0
56481.0,STARLINK-6222,PAYLOAD,2023-12-17 03:56:57,14.98330236,0.0002837,70.0006,15.541,259.0187,101.0653,-6.9942e-06,-1.76e-06,0.0,0 STARLINK-6222,1 56481U 23064AK  23351.16455392 -.00000176  00000-0 -69942-5 0  9999,2 56481  70.0006  15.5410 0002837 259.0187 101.0653 14.98330236 34245,6950.192,96.107,574.029,570.085,0.0
56481.0,STARLINK-6222,PAYLOAD,2023-12-17 11:57:37,14.98330094,0.0002852,70.0006,14.6993,262.3351,97.7484,-5.8012e-06,-1.62e-06,0.0,0 STARLINK-6222,1 56481U 23064AK  23351.49835412 -.00000162  00000-0 -58012-5 0  9991,2 56481  70.0006  14.6993 0002852 262.3351  97.7484 14.98330094 34298,6950.193,96.107,574.04,570.075,0.0
56481.0,STARLINK-6222,PAYLOAD,2023-12-18 03:58:57,14.98333883,0.000294,70.0004,13.015,270.2067,89.8755,6.5535e-05,6.89e-06,0.0,0 STARLINK-6222,1 56481U 23064AK  23352.16594891  .00000689  00000-0  65535-4 0  9998,2 56481  70.0004  13.0150 0002940 270.2067  89.8755 14.98333883 34397,6950.181,96.107,574.089,570.003,0.0
56481.0,STARLINK-6222,PAYLOAD,2023-12-18 10:23:29,14.98336779,0.0002867,70.0006,12.3417,269.6717,90.4113,9.6979e-05,1.065e-05,0.0,0 STARLINK-6222,1 56481U 23064AK  23352.43298529  .00001065  00000-0  96979-4 0  9992,2 56481  70.0006  12.3417 0002867 269.6717  90.4113 14.98336779 34437,6950.172,96.107,574.03,570.044,0.0
56481.0,STARLINK-6222,PAYLOAD,2023-12-19 04:00:59,14.98327152,0.0002732,70.0008,10.4897,270.9945,89.0901,-1.9464e-05,-3.25e-06,0.0,0 STARLINK-6222,1 56481U 23064AK  23353.16735356 -.00000325  00000-0 -19464-4 0  9991,2 56481  70.0008  10.4897 0002732 270.9945  89.0901 14.98327152 34545,6950.202,96.107,573.965,570.168,0.0
56481.0,STARLINK-6222,PAYLOAD,2023-12-19 10:25:31,14.98324788,0.000269,70.0011,9.8173,257.2678,102.8181,-4.0298e-05,-5.74e-06,0.0,0 STARLINK-6222,1 56481U 23064AK  23353.43439536 -.00000574  00000-0 -40298-4 0  9997,2 56481  70.0011   9.8173 0002690 257.2678 102.8181 14.98324788 34582,6950.209,96.107,573.944,570.204,0.0
56481.0,STARLINK-6222,PAYLOAD,2023-12-20 04:03:00,14.98326361,0.0002526,70.0028,7.9693,245.5356,114.554,-7.7112e-05,-1.013e-05,0.0,0 STARLINK-6222,1 56481U 23064AK  23354.16875594 -.00001013  00000-0 -77112-4 0  9990,2 56481  70.0028   7.9693 0002526 245.5356 114.5540 14.98326361 34697,6950.204,96.107,573.825,570.314,0.0
56481.0,STARLINK-6222,PAYLOAD,2023-12-20 10:27:33,14.98323508,0.0002442,70.0025,7.2947,236.8684,123.2241,-0.00010559,-1.352e-05,0.0,0 STARLINK-6222,1 56481U 23064AK  23354.43579882 -.00001352  00000-0 -10559-3 0  9998,2 56481  70.0025   7.2947 0002442 236.8684 123.2241 14.98323508 34733,6950.213,96.107,573.775,570.381,0.0
56481.0,STARLINK-6222,PAYLOAD,2023-12-21 04:05:01,14.98324184,0.0002833,70.0008,5.4405,260.1346,99.9493,6.2871e-05,6.57e-06,0.0,0 STARLINK-6222,1 56481U 23064AK  23355.17015485  .00000657  00000-0  62871-4 0  9994,2 56481  70.0008   5.4405 0002833 260.1346  99.9493 14.98324184 34843,6950.211,96.107,574.045,570.107,0.0
56481.0,STARLINK-6222,PAYLOAD,2023-12-21 10:29:33,14.98326431,0.0002521,70.0017,4.7682,257.0993,102.9885,0.00010334,1.14e-05,0.0,0 STARLINK-6222,1 56481U 23064AK  23355.43719361  .00001140  00000-0  10334-3 0  9991,2 56481  70.0017   4.7682 0002521 257.0993 102.9885 14.98326431 34880,6950.204,96.107,573.821,570.317,0.0
56481.0,STARLINK-6222,PAYLOAD,2023-12-22 04:07:02,14.98327115,0.0002754,70.0011,2.9167,255.5817,104.5036,4.4119e-05,4.33e-06,0.0,0 STARLINK-6222,1 56481U 23064AK  23356.17155424  .00000433  00000-0  44119-4 0  9990,2 56481  70.0011   2.9167 0002754 255.5817 104.5036 14.98327115 34996,6950.202,96.107,573.981,570.153,0.0
